GLOBALSTAR M052 [-]     
1 25773U 99031D   17345.45057201 -.00000024  00000-0  13947-2 0  9993
2 25773  51.9880  81.5242 0001629 297.9479 141.8054 11.15022986172338
